*******************************************************************************
Ephemeris / WWW_USER Fri Mar  7 10:13:53 2025 Pasadena, USA      / Horizons    
*******************************************************************************
Target body name: (2018 PN20)                     {source: JPL#3}
Center body name: Earth (399)                     {source: DE441}
Center-site name: Mauna Kea
*******************************************************************************
Start time      : A.D. 2018-Nov-28 03:51:00.0000 UT      
Stop  time      : A.D. 2018-Nov-28 16:28:00.0000 UT      
Step-size       : 1 minutes
*******************************************************************************
Target pole/equ : undefined
Target radii    : undefined                                                    
Center geodetic : 204.5278, 19.8260847, 4.21024   {E-lon(deg),Lat(deg),Alt(km)}
Center cylindric: 204.5278, 6006.35451, 2151.0229 {E-lon(deg),Dxy(km),Dz(km)}
Center pole/equ : ITRF93                          {East-longitude positive}
Center radii    : 6378.137, 6378.137, 6356.752 km {Equator_a, b, pole_c}       
Target primary  : Sun
Vis. interferer : MOON (R_eq= 1737.400) km        {source: DE441}
Rel. light bend : Sun                             {source: DE441}
Rel. lght bnd GM: 1.3271E+11 km^3/s^2                                          
Small-body perts: Yes                             {source: SB441-N16}
Atmos refraction: NO (AIRLESS)
RA format       : HMS
Time format     : CAL 
Calendar mode   : Mixed Julian/Gregorian
RTS-only print  : NO       
EOP file        : eop.250306.p250602                                           
EOP coverage    : DATA-BASED 1962-JAN-20 TO 2025-MAR-06. PREDICTS-> 2025-JUN-01
Units conversion: 1 au= 149597870.700 km, c= 299792.458 km/s, 1 day= 86400.0 s 
Table cut-offs 1: Elevation (-90.0deg=NO ),Airmass (>38.000=NO), Daylight (YES)
Table cut-offs 2: Solar elongation (  0.0,180.0=NO ),Local Hour Angle( 0.0=NO )
Table cut-offs 3: RA/DEC angular rate (     0.0=NO )                           
*******************************************************************************
Initial IAU76/J2000 heliocentric ecliptic osculating elements (au, days, deg.):
  EPOCH=  2458343.5 ! 2018-Aug-13.00 (TDB)         Residual RMS= .1225         
   EC= .3775096637251725   QR= 1.051585063958075   TP= 2458346.3972912203      
   OM= 142.6884316149991   W=  180.4368328240348   IN= 18.91630320954361       
  Equivalent ICRF heliocentric cartesian coordinates (au, au/d):
   X= 8.077039416640637E-01  Y=-6.245728834467501E-01  Z=-2.534674905132982E-01
  VX= 1.177737749455786E-02 VY= 1.576958466977457E-02 VZ=-1.142216194306418E-04
Asteroid physical parameters (km, seconds, rotational period in hours):        
   GM= n.a.                RAD= n.a.               ROTPER= n.a.                
   H= 25.1                 G= .150                 B-V= n.a.                   
                           ALBEDO= n.a.            STYP= n.a.                  
*******************************************************************************
 Date__(UT)__HR:MN     R.A._________(ICRF)_________DEC
******************************************************
$$SOE
 2018-Nov-28 10:00  m  02 33 14.505970 -33 01 17.22907
 2018-Nov-28 10:01  m  02 33 14.501879 -33 01 15.92078
 2018-Nov-28 10:02  m  02 33 14.497797 -33 01 14.61237
 2018-Nov-28 10:03  m  02 33 14.493724 -33 01 13.30383
 2018-Nov-28 10:04  m  02 33 14.489660 -33 01 11.99518
 2018-Nov-28 10:05  m  02 33 14.485604 -33 01 10.68640
 2018-Nov-28 10:06  m  02 33 14.481558 -33 01 09.37751
 2018-Nov-28 10:07  m  02 33 14.477520 -33 01 08.06849
 2018-Nov-28 10:08  m  02 33 14.473492 -33 01 06.75935
 2018-Nov-28 10:09  m  02 33 14.469473 -33 01 05.45010
 2018-Nov-28 10:10  m  02 33 14.465464 -33 01 04.14072
 2018-Nov-28 10:11  m  02 33 14.461463 -33 01 02.83123
 2018-Nov-28 10:12  m  02 33 14.457473 -33 01 01.52161
 2018-Nov-28 10:13  m  02 33 14.453491 -33 01 00.21188
 2018-Nov-28 10:14  m  02 33 14.449519 -33 00 58.90202
 2018-Nov-28 10:15  m  02 33 14.445557 -33 00 57.59205
 2018-Nov-28 10:16  m  02 33 14.441605 -33 00 56.28196
 2018-Nov-28 10:17  m  02 33 14.437663 -33 00 54.97176
 2018-Nov-28 10:18  m  02 33 14.433730 -33 00 53.66143
 2018-Nov-28 10:19  m  02 33 14.429808 -33 00 52.35099
 2018-Nov-28 10:20  m  02 33 14.425895 -33 00 51.04043
 2018-Nov-28 10:21  m  02 33 14.421993 -33 00 49.72976
 2018-Nov-28 10:22  m  02 33 14.418101 -33 00 48.41896
 2018-Nov-28 10:23  m  02 33 14.414219 -33 00 47.10806
 2018-Nov-28 10:24  m  02 33 14.410347 -33 00 45.79703
 2018-Nov-28 10:25  m  02 33 14.406486 -33 00 44.48589
 2018-Nov-28 10:26  m  02 33 14.402635 -33 00 43.17464
 2018-Nov-28 10:27  m  02 33 14.398795 -33 00 41.86326
 2018-Nov-28 10:28  m  02 33 14.394965 -33 00 40.55178
 2018-Nov-28 10:29  m  02 33 14.391147 -33 00 39.24018
 2018-Nov-28 10:30  m  02 33 14.387339 -33 00 37.92847
 2018-Nov-28 10:31  m  02 33 14.383541 -33 00 36.61664
 2018-Nov-28 10:32  m  02 33 14.379755 -33 00 35.30470
 2018-Nov-28 10:33  m  02 33 14.375980 -33 00 33.99264
 2018-Nov-28 10:34  m  02 33 14.372216 -33 00 32.68047
 2018-Nov-28 10:35  m  02 33 14.368463 -33 00 31.36819
 2018-Nov-28 10:36  m  02 33 14.364721 -33 00 30.05580
 2018-Nov-28 10:37  m  02 33 14.360990 -33 00 28.74329
 2018-Nov-28 10:38  m  02 33 14.357271 -33 00 27.43068
 2018-Nov-28 10:39  m  02 33 14.353563 -33 00 26.11795
 2018-Nov-28 10:40  m  02 33 14.349867 -33 00 24.80511
 2018-Nov-28 10:41  m  02 33 14.346182 -33 00 23.49216
 2018-Nov-28 10:42  m  02 33 14.342509 -33 00 22.17910
 2018-Nov-28 10:43  m  02 33 14.338847 -33 00 20.86593
 2018-Nov-28 10:44  m  02 33 14.335197 -33 00 19.55265
 2018-Nov-28 10:45  m  02 33 14.331559 -33 00 18.23926
 2018-Nov-28 10:46  m  02 33 14.327933 -33 00 16.92576
 2018-Nov-28 10:47  m  02 33 14.324319 -33 00 15.61215
 2018-Nov-28 10:48  m  02 33 14.320717 -33 00 14.29843
 2018-Nov-28 10:49  m  02 33 14.317127 -33 00 12.98460
 2018-Nov-28 10:50  m  02 33 14.313550 -33 00 11.67067
 2018-Nov-28 10:51  m  02 33 14.309984 -33 00 10.35663
 2018-Nov-28 10:52  m  02 33 14.306431 -33 00 09.04248
 2018-Nov-28 10:53  m  02 33 14.302890 -33 00 07.72823
 2018-Nov-28 10:54  m  02 33 14.299362 -33 00 06.41387
 2018-Nov-28 10:55  m  02 33 14.295846 -33 00 05.09940
 2018-Nov-28 10:56  m  02 33 14.292342 -33 00 03.78483
 2018-Nov-28 10:57  m  02 33 14.288852 -33 00 02.47015
 2018-Nov-28 10:58  m  02 33 14.285374 -33 00 01.15536
 2018-Nov-28 10:59  m  02 33 14.281909 -32 59 59.84047
 2018-Nov-28 11:00  m  02 33 14.278456 -32 59 58.52548
 2018-Nov-28 11:01  m  02 33 14.275017 -32 59 57.21038
 2018-Nov-28 11:02  m  02 33 14.271590 -32 59 55.89518
 2018-Nov-28 11:03  m  02 33 14.268177 -32 59 54.57988
 2018-Nov-28 11:04  m  02 33 14.264776 -32 59 53.26447
 2018-Nov-28 11:05  m  02 33 14.261389 -32 59 51.94896
 2018-Nov-28 11:06  m  02 33 14.258015 -32 59 50.63335
 2018-Nov-28 11:07  m  02 33 14.254654 -32 59 49.31764
 2018-Nov-28 11:08  m  02 33 14.251307 -32 59 48.00182
 2018-Nov-28 11:09  m  02 33 14.247973 -32 59 46.68591
 2018-Nov-28 11:10  m  02 33 14.244652 -32 59 45.36989
 2018-Nov-28 11:11  m  02 33 14.241346 -32 59 44.05377
 2018-Nov-28 11:12  m  02 33 14.238052 -32 59 42.73756
 2018-Nov-28 11:13  m  02 33 14.234772 -32 59 41.42124
 2018-Nov-28 11:14  m  02 33 14.231507 -32 59 40.10482
 2018-Nov-28 11:15  m  02 33 14.228254 -32 59 38.78831
 2018-Nov-28 11:16  m  02 33 14.225016 -32 59 37.47169
 2018-Nov-28 11:17  m  02 33 14.221792 -32 59 36.15498
 2018-Nov-28 11:18  m  02 33 14.218581 -32 59 34.83817
 2018-Nov-28 11:19  m  02 33 14.215385 -32 59 33.52127
 2018-Nov-28 11:20  m  02 33 14.212203 -32 59 32.20426
 2018-Nov-28 11:21  m  02 33 14.209034 -32 59 30.88716
 2018-Nov-28 11:22  m  02 33 14.205881 -32 59 29.56997
 2018-Nov-28 11:23  m  02 33 14.202741 -32 59 28.25268
 2018-Nov-28 11:24  m  02 33 14.199616 -32 59 26.93529
 2018-Nov-28 11:25  m  02 33 14.196505 -32 59 25.61781
 2018-Nov-28 11:26  m  02 33 14.193408 -32 59 24.30023
 2018-Nov-28 11:27  m  02 33 14.190326 -32 59 22.98256
 2018-Nov-28 11:28  m  02 33 14.187259 -32 59 21.66480
 2018-Nov-28 11:29  m  02 33 14.184206 -32 59 20.34694
 2018-Nov-28 11:30  m  02 33 14.181168 -32 59 19.02899
 2018-Nov-28 11:31  m  02 33 14.178145 -32 59 17.71095
 2018-Nov-28 11:32  m  02 33 14.175136 -32 59 16.39281
 2018-Nov-28 11:33  m  02 33 14.172143 -32 59 15.07459
 2018-Nov-28 11:34  m  02 33 14.169164 -32 59 13.75627
 2018-Nov-28 11:35  m  02 33 14.166200 -32 59 12.43786
 2018-Nov-28 11:36  m  02 33 14.163252 -32 59 11.11937
 2018-Nov-28 11:37  m  02 33 14.160318 -32 59 09.80078
 2018-Nov-28 11:38  m  02 33 14.157399 -32 59 08.48210
 2018-Nov-28 11:39  m  02 33 14.154496 -32 59 07.16333
 2018-Nov-28 11:40  m  02 33 14.151608 -32 59 05.84448
 2018-Nov-28 11:41  m  02 33 14.148735 -32 59 04.52553
 2018-Nov-28 11:42  m  02 33 14.145878 -32 59 03.20650
 2018-Nov-28 11:43  m  02 33 14.143036 -32 59 01.88738
 2018-Nov-28 11:44  m  02 33 14.140210 -32 59 00.56818
 2018-Nov-28 11:45  m  02 33 14.137399 -32 58 59.24889
 2018-Nov-28 11:46  m  02 33 14.134604 -32 58 57.92951
 2018-Nov-28 11:47  m  02 33 14.131824 -32 58 56.61005
 2018-Nov-28 11:48  m  02 33 14.129060 -32 58 55.29050
 2018-Nov-28 11:49  m  02 33 14.126312 -32 58 53.97086
 2018-Nov-28 11:50  m  02 33 14.123579 -32 58 52.65115
 2018-Nov-28 11:51  m  02 33 14.120862 -32 58 51.33134
 2018-Nov-28 11:52  m  02 33 14.118162 -32 58 50.01146
 2018-Nov-28 11:53  m  02 33 14.115477 -32 58 48.69149
 2018-Nov-28 11:54  m  02 33 14.112808 -32 58 47.37144
 2018-Nov-28 11:55  m  02 33 14.110155 -32 58 46.05131
 2018-Nov-28 11:56  m  02 33 14.107519 -32 58 44.73109
 2018-Nov-28 11:57  m  02 33 14.104898 -32 58 43.41080
 2018-Nov-28 11:58  m  02 33 14.102294 -32 58 42.09042
 2018-Nov-28 11:59  m  02 33 14.099706 -32 58 40.76997
 2018-Nov-28 12:00  m  02 33 14.097134 -32 58 39.44943
 2018-Nov-28 12:01  m  02 33 14.094579 -32 58 38.12882
 2018-Nov-28 12:02  m  02 33 14.092040 -32 58 36.80813
